NORAD_CAT_ID,OBJECT_NAME,OBJECT_TYPE,EPOCH,MEAN_MOTION,ECCENTRICITY,INCLINATION,RA_OF_ASC_NODE,ARG_OF_PERICENTER,MEAN_ANOMALY,BSTAR,MEAN_MOTION_DOT,MEAN_MOTION_DDOT,TLE_LINE0,TLE_LINE1,TLE_LINE2,SEMIMAJOR_AXIS,PERIOD,APOGEE,PERIGEE,DECAYED
53424.0,STARLINK-4532,PAYLOAD,2022-10-22 22:00:00,15.08883982,0.0001631999999999,53.2195,252.7273,53.8738,197.0155,-0.0019098,-0.00030591,0.0,0 STARLINK-4532,1 53424U 22097AN  22295.91667824 -.00030591  00000-0 -19098-2 0  9990,2 53424  53.2195 252.7273 0001632  53.8738 197.0155 15.08883982 11900,6917.746,95.435,540.74,538.482,0.0
53424.0,STARLINK-4532,PAYLOAD,2022-10-23 14:00:01,15.0887369,0.0001718,53.2197,249.7349,48.6452,225.5045,-0.0027429999999999,-0.00043719,0.0,0 STARLINK-4532,1 53424U 22097AN  22296.58334491 -.00043719  00000-0 -27430-2 0  9990,2 53424  53.2197 249.7349 0001718  48.6452 225.5045 15.08873690 12004,6917.776999999999,95.435,540.831,538.4540000000002,0.0
53424.0,STARLINK-4532,PAYLOAD,2022-10-23 22:00:00,15.08874667,0.0001696999999999,53.2198,248.2381,53.4682,232.2898,-0.0024144,-0.00038545,0.0,0 STARLINK-4532,1 53424U 22097AN  22296.91667824 -.00038545  00000-0 -24144-2 0  9996,2 53424  53.2198 248.2381 0001697  53.4682 232.2898 15.08874667  1307,6917.774,95.435,540.813,538.465,0.0
53424.0,STARLINK-4532,PAYLOAD,2022-10-24 06:00:00,15.08840481,0.000184,53.2201,246.7435,46.6961,250.6897,-0.0034909999999999,-0.00055422,0.0,0 STARLINK-4532,1 53424U 22097AN  22297.25001157 -.00055422  00000-0 -34910-2 0  9990,2 53424  53.2201 246.7435 0001840  46.6961 250.6897 15.08840481 12109,6917.879,95.438,541.0169999999998,538.471,0.0
53424.0,STARLINK-4532,PAYLOAD,2022-10-24 14:00:01,15.08776927,0.0001693,53.2203,245.2458,46.3871,262.5728,0.0015333,0.00024157,0.0,0 STARLINK-4532,1 53424U 22097AN  22297.58334491  .00024157  00000-0  15333-2 0  9993,2 53424  53.2203 245.2458 0001693  46.3871 262.5728 15.08776927  1301,6918.073,95.442,541.109,538.7669999999998,0.0
53424.0,STARLINK-4532,PAYLOAD,2022-10-24 22:00:00,15.08817591,0.0001705,53.2205,243.7494,51.3135,269.1677,0.00028658,4.273e-05,0.0,0 STARLINK-4532,1 53424U 22097AN  22297.91667824  .00004273  00000-0  28658-3 0  9991,2 53424  53.2205 243.7494 0001705  51.3135 269.1677 15.08817591 12210,6917.949000000001,95.439,540.993,538.634,0.0
53424.0,STARLINK-4532,PAYLOAD,2022-10-25 14:00:01,15.08832721,0.0001779,53.2209,240.7572,48.7156,294.9073,-9.0766e-05,-1.732e-05,0.0,0 STARLINK-4532,1 53424U 22097AN  22298.58334491 -.00001732  00000-0 -90766-4 0  9995,2 53424  53.2209 240.7572 0001779  48.7156 294.9073 15.08832721  1308,6917.903,95.438,540.998,538.5369999999998,0.0
53424.0,STARLINK-4532,PAYLOAD,2022-10-25 22:00:01,15.08853582,0.0001786999999999,53.2212,239.2609,52.2244,303.0422,-4.1522e-05,-9.49e-06,0.0,0 STARLINK-4532,1 53424U 22097AN  22298.91668981 -.00000949  00000-0 -41522-4 0  9991,2 53424  53.2212 239.2609 0001787  52.2244 303.0422 15.08853582 12369,6917.839,95.437,540.94,538.4680000000002,0.0
53424.0,STARLINK-4532,PAYLOAD,2022-10-26 14:00:01,15.08840508,0.0001739,53.2213,236.2685,49.4826,328.9497,0.00016179,2.288e-05,0.0,0 STARLINK-4532,1 53424U 22097AN  22299.58334491  .00002288  00000-0  16179-3 0  9996,2 53424  53.2213 236.2685 0001739  49.4826 328.9497 15.08840508  1306,6917.879,95.438,540.947,538.5409999999998,0.0
53424.0,STARLINK-4532,PAYLOAD,2022-10-26 22:00:00,15.08870496,0.0001704,53.2216,234.7726,50.5811,339.4355,-0.0022927,-0.00036622,0.0,0 STARLINK-4532,1 53424U 22097AN  22299.91667824 -.00036622  00000-0 -22927-2 0  9990,2 53424  53.2216 234.7726 0001704  50.5811 339.4355 15.08870496  1306,6917.7869999999975,95.436,540.831,538.4730000000002,0.0
53424.0,STARLINK-4532,PAYLOAD,2022-10-27 06:00:00,15.08811409,0.000182,53.2213,233.2778,44.2801,357.3628,0.0029176,0.00046415,0.0,0 STARLINK-4532,1 53424U 22097AN  22300.25001157  .00046415  00000-0  29176-2 0  9993,2 53424  53.2213 233.2778 0001820  44.2801 357.3628 15.08811409 12563,6917.968000000003,95.439,541.092,538.5740000000002,0.0
53424.0,STARLINK-4532,PAYLOAD,2022-10-27 14:00:01,15.08841762,0.0001649,53.2213,231.7799,48.4393,4.8608,0.00084396,0.0001317,0.0,0 STARLINK-4532,1 53424U 22097AN  22300.58335648  .00013170  00000-0  84396-3 0  9992,2 53424  53.2213 231.7799 0001649  48.4393   4.8608 15.08841762  1307,6917.875,95.437,540.881,538.599,0.0
53424.0,STARLINK-4532,PAYLOAD,2022-10-27 22:00:00,15.08868766,0.0001717,53.2213,230.2843,52.1074,12.7291,-0.0027003,-0.00043041,0.0,0 STARLINK-4532,1 53424U 22097AN  22300.91667824 -.00043041  00000-0 -27003-2 0  9996,2 53424  53.2213 230.2843 0001717  52.1074  12.7291 15.08868766  1304,6917.792,95.436,540.845,538.47,0.0
53424.0,STARLINK-4532,PAYLOAD,2022-10-28 14:00:01,15.08824314,0.0001624,53.2207,227.2915,51.168,36.9624,0.0016811,0.00026556,0.0,0 STARLINK-4532,1 53424U 22097AN  22301.58335648  .00026556  00000-0  16811-2 0  9991,2 53424  53.2207 227.2915 0001624  51.1680  36.9624 15.08824314 12763,6917.928000000001,95.439,540.9169999999998,538.67,0.0
53424.0,STARLINK-4532,PAYLOAD,2022-10-28 16:00:00,15.08815549,0.0001603,53.2205,226.9172,51.784,129.1833,0.0033363,0.00053174,0.0,0 STARLINK-4532,1 53424U 22097AN  22301.66667824  .00053174  00000-0  33363-2 0  9991,2 53424  53.2205 226.9172 0001603  51.7840 129.1833 15.08815549 12771,6917.955,95.439,540.929,538.711,0.0
53424.0,STARLINK-4532,PAYLOAD,2022-10-28 22:00:01,15.08871409,0.0001654,53.2206,225.7959,51.4378,48.2727,-0.0040739,-0.00064599,0.0,0 STARLINK-4532,1 53424U 22097AN  22301.91668981 -.00064599  00000-0 -40739-2 0  9994,2 53424  53.2206 225.7959 0001654  51.4378  48.2727 15.08871409  1308,6917.784000000002,95.436,540.794,538.505,0.0
53424.0,STARLINK-4532,PAYLOAD,2022-10-29 12:00:00,15.08840209,0.0001706999999999,53.2199,223.1774,52.5157,337.4455,-0.00023126,-3.967e-05,0.0,0 STARLINK-4532,1 53424U 22097AN  22302.50001157 -.00003967  00000-0 -23126-3 0  9990,2 53424  53.2199 223.1774 0001707  52.5157 337.4455 15.08840209  1307,6917.88,95.438,540.9259999999998,538.564,0.0
53424.0,STARLINK-4532,PAYLOAD,2022-10-29 22:00:01,15.08881478,0.0001805,53.219,221.3089,54.4504,80.0539,-0.0073062,-0.0011485,0.0,0 STARLINK-4532,1 53424U 22097AN  22302.91668981 -.00114850  00000-0 -73062-2 0  9996,2 53424  53.2190 221.3089 0001805  54.4504  80.0539 15.08881478  1300,6917.754,95.435,540.867,538.37,0.0
53424.0,STARLINK-4532,PAYLOAD,2022-10-30 00:00:00,15.08883134,0.000179,53.2187,220.936,53.2607,174.0817,-0.010261,-0.00160175,0.0,0 STARLINK-4532,1 53424U 22097AN  22303.00001157 -.00160175  00000-0 -10261-1 0  9995,2 53424  53.2187 220.9360 0001790  53.2607 174.0817 15.08883134 12976,6917.749,95.435,540.852,538.375,0.0
53424.0,STARLINK-4532,PAYLOAD,2022-10-30 14:00:01,15.088070000000002,0.0001721999999999,53.2192,218.3145,53.7991,103.8201,0.0027253,0.00043313,0.0,0 STARLINK-4532,1 53424U 22097AN  22303.58334491  .00043313  00000-0  27253-2 0  9990,2 53424  53.2192 218.3145 0001722  53.7991 103.8201 15.08807000  1300,6917.981,95.44,541.038,538.655,0.0
53424.0,STARLINK-4532,PAYLOAD,2022-10-30 22:00:01,15.08851753,0.0001773,53.2193,216.819,53.7019,115.5532,-0.0025905,-0.00041294,0.0,0 STARLINK-4532,1 53424U 22097AN  22303.91668981 -.00041294  00000-0 -25905-2 0  9991,2 53424  53.2193 216.8190 0001773  53.7019 115.5532 15.08851753  1302,6917.844,95.437,540.936,538.4830000000002,0.0
53424.0,STARLINK-4532,PAYLOAD,2022-10-31 14:00:01,15.08795189,0.0001617,53.2191,213.8256,49.8368,142.5326,0.0035215,0.00056134,0.0,0 STARLINK-4532,1 53424U 22097AN  22304.58334491  .00056134  00000-0  35215-2 0  9993,2 53424  53.2191 213.8256 0001617  49.8368 142.5326 15.08795189  1301,6918.017,95.44,541.001,538.764,0.0
53424.0,STARLINK-4532,PAYLOAD,2022-10-31 22:00:01,15.08853032,0.0001727,53.2193,212.3303,49.9656,154.0267,-0.0014038,-0.00022568,0.0,0 STARLINK-4532,1 53424U 22097AN  22304.91668981 -.00022568  00000-0 -14038-2 0  9990,2 53424  53.2193 212.3303 0001727  49.9656 154.0267 15.08853032 13265,6917.840999999999,95.437,540.9,538.511,0.0
53424.0,STARLINK-4532,PAYLOAD,2022-11-01 14:00:01,15.08836512,0.0001663,53.2195,209.3367,49.4539,177.6816,0.00091229,0.0001426,0.0,0 STARLINK-4532,1 53424U 22097AN  22305.58334491  .00014260  00000-0  91229-3 0  9996,2 53424  53.2195 209.3367 0001663  49.4539 177.6816 15.08836512 13363,6917.891,95.438,540.906,538.606,0.0
53424.0,STARLINK-4532,PAYLOAD,2022-11-01 22:00:00,15.08855235,0.0001807,53.2198,207.8415,50.0804,188.6515,-0.0014045,-0.00022581,0.0,0 STARLINK-4532,1 53424U 22097AN  22305.91667824 -.00022581  00000-0 -14045-2 0  9999,2 53424  53.2198 207.8415 0001807  50.0804 188.6515 15.08855235  1308,6917.834,95.437,540.9490000000002,538.4490000000002,0.0
53424.0,STARLINK-4532,PAYLOAD,2022-11-02 06:00:00,15.08841954,0.0001795,53.2198,206.3459,43.919,206.4173,-0.0018948,-0.00030319,0.0,0 STARLINK-4532,1 53424U 22097AN  22306.25001157 -.00030319  00000-0 -18948-2 0  9992,2 53424  53.2198 206.3459 0001795  43.9190 206.4173 15.08841954 13467,6917.874,95.437,540.981,538.498,0.0
53424.0,STARLINK-4532,PAYLOAD,2022-11-02 14:00:01,15.08790129,0.0001564999999999,53.2197,204.8482,48.856,213.0734,0.0041252,0.00065888,0.0,0 STARLINK-4532,1 53424U 22097AN  22306.58334491  .00065888  00000-0  41252-2 0  9999,2 53424  53.2197 204.8482 0001565  48.8560 213.0734 15.08790129  1309,6918.033,95.441,540.981,538.815,0.0
53424.0,STARLINK-4532,PAYLOAD,2022-11-02 18:00:02,15.08824469,0.000159,53.2192,204.1003,51.9917,35.7716,0.0019542,0.00030937,0.0,0 STARLINK-4532,1 53424U 22097AN  22306.75002315  .00030937  00000-0  19542-2 0  9999,2 53424  53.2192 204.1003 0001590  51.9917  35.7716 15.08824469 13548,6917.928000000001,95.439,540.893,538.693,0.0
53424.0,STARLINK-4532,PAYLOAD,2022-11-03 01:33:44,15.08833692,0.0001835,53.2216,202.6861,50.0567,310.0586,-3.4162e-05,-8.32e-06,0.0,0 STARLINK-4532,1 53424U 22097AN  22307.06510036 -.00000832  00000-0 -34162-4 0  9998,2 53424  53.2216 202.6861 0001835  50.0567 310.0586 15.08833692 13590,6917.9,95.438,541.034,538.495,0.0
